NAVSTAR 77 (USA 289)    
1 43873U 18109A   24107.51355170  .00000043  00000+0  00000+0 0  9990
2 43873  55.2725 123.4632 0028520 195.7945 344.0185  2.00553287 39190
